FLOCK 4BE-3             
1 60561U 24149CX  26195.79137934  .00010423  00000+0  24329-3 0  9996
2 60561  97.3696 279.9825 0005227 170.3057 189.8292 15.42384981106596
FLOCK 4BE-19            
1 60563U 24149CZ  26195.78171466  .00015793  00000+0  32927-3 0  9993
2 60563  97.3754 281.6525 0006017 177.2453 182.8830 15.45634435106680
FLOCK 4G-8              
1 62613U 25009E   26195.81544304  .00005974  00000+0  20681-3 0  9990
2 62613  97.4009 277.7119 0004021 193.6729 166.4403 15.30239180 83149
FLOCK 4G-13             
1 62621U 25009N   26195.77518713  .00052489  00000+0  97108-3 0  9990
2 62621  97.3944 279.6191 0006385 200.1224 159.9776 15.48850295 83263
FLOCK 4G-9              
1 62622U 25009P   26195.77226998  .00005288  00000+0  19332-3 0  9990
2 62622  97.3961 276.5250 0004026 206.2485 153.8552 15.28504340 83070
FLOCK 4G-7              
1 62624U 25009R   26195.93027184  .00006390  00000+0  22353-3 0  9998
2 62624  97.3945 277.0983 0002549 182.9468 177.1758 15.29873234 83149
FLOCK 4G-12             
1 62625U 25009S   26195.79469051  .00006118  00000+0  21480-3 0  9994
2 62625  97.4024 277.5125 0004120 189.9524 170.1635 15.29767069 83122
FLOCK 4G-11             
1 62629U 25009W   26195.77958186  .00006477  00000+0  22652-3 0  9998
2 62629  97.3926 277.0563 0002553 185.4382 174.6831 15.29876885 83133
FLOCK 4G-26             
1 62633U 25009AA  26195.72781019  .00006722  00000+0  23361-3 0  9998
2 62633  97.4020 277.6068 0003604 179.2247 180.8999 15.30064585 83120
FLOCK 4G-28             
1 62634U 25009AB  26195.76025407  .00005064  00000+0  15025-3 0  9991
2 62634  97.4030 280.4206 0002056 163.5176 196.6134 15.35276023 83319
FLOCK 4G-24             
1 62637U 25009AE  26195.80455245  .00005918  00000+0  20413-3 0  9991
2 62637  97.4027 277.9880 0003661 167.1171 193.0164 15.30362688 83159
FLOCK 4G-3              
1 62639U 25009AG  26195.86301962  .00006282  00000+0  21982-3 0  9992
2 62639  97.4027 277.7547 0003188 170.9283 189.2015 15.29869115 83134
FLOCK 4G-27             
1 62641U 25009AJ  26195.75176091  .00005802  00000+0  20364-3 0  9996
2 62641  97.3937 276.9925 0002505 171.9018 188.2264 15.29803243 83119
FLOCK 4G-29             
1 62642U 25009AK  26195.80253126  .00005145  00000+0  18059-3 0  9996
2 62642  97.4023 277.6542 0003370 168.0763 192.0558 15.29857286 83121
FLOCK 4G-22             
1 62645U 25009AN  26195.69014473  .00006181  00000+0  21702-3 0  9996
2 62645  97.4010 277.5766 0002914 163.9793 196.1540 15.29766560 83127
FLOCK 4G-25             
1 62646U 25009AP  26195.79476970  .00006287  00000+0  21907-3 0  9996
2 62646  97.4018 277.7593 0002373 164.0952 196.0364 15.30005946 83145
