{"fetched_at":"2026-07-15T06:35:37.596Z","source":"https://celestrak.org/NORAD/elements/gp.php?GROUP=planet&FORMAT=JSON","constellation":"superdove","records":[{"OBJECT_NAME":"FLOCK 4BE-3","OBJECT_ID":"2024-149CX","EPOCH":"2026-07-14T18:59:35.174976","CLASSIFICATION_TYPE":"U","MEAN_MOTION":15.42384981,"ECCENTRICITY":0.00052278,"INCLINATION":97.3696,"RA_OF_ASC_NODE":279.9825,"ARG_OF_PERICENTER":170.3057,"MEAN_ANOMALY":189.8292,"EPHEMERIS_TYPE":0,"NORAD_CAT_ID":60561,"ELEMENT_SET_NO":999,"REV_AT_EPOCH":10659,"BSTAR":0.00024329342,"MEAN_MOTION_DOT":0.00010423,"MEAN_MOTION_DDOT":0},{"OBJECT_NAME":"FLOCK 4BE-19","OBJECT_ID":"2024-149CZ","EPOCH":"2026-07-14T18:45:40.146624","CLASSIFICATION_TYPE":"U","MEAN_MOTION":15.45634435,"ECCENTRICITY":0.0006017,"INCLINATION":97.3754,"RA_OF_ASC_NODE":281.6525,"ARG_OF_PERICENTER":177.2453,"MEAN_ANOMALY":182.883,"EPHEMERIS_TYPE":0,"NORAD_CAT_ID":60563,"ELEMENT_SET_NO":999,"REV_AT_EPOCH":10668,"BSTAR":0.00032926655,"MEAN_MOTION_DOT":0.00015793,"MEAN_MOTION_DDOT":0},{"OBJECT_NAME":"FLOCK 4G-8","OBJECT_ID":"2025-009E","EPOCH":"2026-07-14T19:34:14.278656","CLASSIFICATION_TYPE":"U","MEAN_MOTION":15.3023918,"ECCENTRICITY":0.00040215,"INCLINATION":97.4009,"RA_OF_ASC_NODE":277.7119,"ARG_OF_PERICENTER":193.6729,"MEAN_ANOMALY":166.4403,"EPHEMERIS_TYPE":0,"NORAD_CAT_ID":62613,"ELEMENT_SET_NO":999,"REV_AT_EPOCH":8314,"BSTAR":0.00020681481,"MEAN_MOTION_DOT":0.00005974,"MEAN_MOTION_DDOT":0},{"OBJECT_NAME":"FLOCK 4G-13","OBJECT_ID":"2025-009N","EPOCH":"2026-07-14T18:36:16.168032","CLASSIFICATION_TYPE":"U","MEAN_MOTION":15.48850295,"ECCENTRICITY":0.00063859,"INCLINATION":97.3944,"RA_OF_ASC_NODE":279.6191,"ARG_OF_PERICENTER":200.1224,"MEAN_ANOMALY":159.9776,"EPHEMERIS_TYPE":0,"NORAD_CAT_ID":62621,"ELEMENT_SET_NO":999,"REV_AT_EPOCH":8326,"BSTAR":0.00097108499,"MEAN_MOTION_DOT":0.00052489,"MEAN_MOTION_DDOT":0},{"OBJECT_NAME":"FLOCK 4G-9","OBJECT_ID":"2025-009P","EPOCH":"2026-07-14T18:32:04.126272","CLASSIFICATION_TYPE":"U","MEAN_MOTION":15.2850434,"ECCENTRICITY":0.00040264,"INCLINATION":97.3961,"RA_OF_ASC_NODE":276.525,"ARG_OF_PERICENTER":206.2485,"MEAN_ANOMALY":153.8552,"EPHEMERIS_TYPE":0,"NORAD_CAT_ID":62622,"ELEMENT_SET_NO":999,"REV_AT_EPOCH":8307,"BSTAR":0.00019332394,"MEAN_MOTION_DOT":0.00005288,"MEAN_MOTION_DDOT":0},{"OBJECT_NAME":"FLOCK 4G-7","OBJECT_ID":"2025-009R","EPOCH":"2026-07-14T22:19:35.486976","CLASSIFICATION_TYPE":"U","MEAN_MOTION":15.29873234,"ECCENTRICITY":0.00025492,"INCLINATION":97.3945,"RA_OF_ASC_NODE":277.0983,"ARG_OF_PERICENTER":182.9468,"MEAN_ANOMALY":177.1758,"EPHEMERIS_TYPE":0,"NORAD_CAT_ID":62624,"ELEMENT_SET_NO":999,"REV_AT_EPOCH":8314,"BSTAR":0.00022352882,"MEAN_MOTION_DOT":0.0000639,"MEAN_MOTION_DDOT":0},{"OBJECT_NAME":"FLOCK 4G-12","OBJECT_ID":"2025-009S","EPOCH":"2026-07-14T19:04:21.260064","CLASSIFICATION_TYPE":"U","MEAN_MOTION":15.29767069,"ECCENTRICITY":0.00041209,"INCLINATION":97.4024,"RA_OF_ASC_NODE":277.5125,"ARG_OF_PERICENTER":189.9524,"MEAN_ANOMALY":170.1635,"EPHEMERIS_TYPE":0,"NORAD_CAT_ID":62625,"ELEMENT_SET_NO":999,"REV_AT_EPOCH":8312,"BSTAR":0.00021480186,"MEAN_MOTION_DOT":0.00006118,"MEAN_MOTION_DDOT":0},{"OBJECT_NAME":"FLOCK 4G-11","OBJECT_ID":"2025-009W","EPOCH":"2026-07-14T18:42:35.872704","CLASSIFICATION_TYPE":"U","MEAN_MOTION":15.29876885,"ECCENTRICITY":0.00025534,"INCLINATION":97.3926,"RA_OF_ASC_NODE":277.0563,"ARG_OF_PERICENTER":185.4382,"MEAN_ANOMALY":174.6831,"EPHEMERIS_TYPE":0,"NORAD_CAT_ID":62629,"ELEMENT_SET_NO":999,"REV_AT_EPOCH":8313,"BSTAR":0.00022652192,"MEAN_MOTION_DOT":0.00006477,"MEAN_MOTION_DDOT":0},{"OBJECT_NAME":"FLOCK 4G-26","OBJECT_ID":"2025-009AA","EPOCH":"2026-07-14T17:28:02.800416","CLASSIFICATION_TYPE":"U","MEAN_MOTION":15.30064585,"ECCENTRICITY":0.00036041,"INCLINATION":97.402,"RA_OF_ASC_NODE":277.6068,"ARG_OF_PERICENTER":179.2247,"MEAN_ANOMALY":180.8999,"EPHEMERIS_TYPE":0,"NORAD_CAT_ID":62633,"ELEMENT_SET_NO":999,"REV_AT_EPOCH":8312,"BSTAR":0.00023361258,"MEAN_MOTION_DOT":0.00006722,"MEAN_MOTION_DDOT":0},{"OBJECT_NAME":"FLOCK 4G-28","OBJECT_ID":"2025-009AB","EPOCH":"2026-07-14T18:14:45.951648","CLASSIFICATION_TYPE":"U","MEAN_MOTION":15.35276023,"ECCENTRICITY":0.00020566,"INCLINATION":97.403,"RA_OF_ASC_NODE":280.4206,"ARG_OF_PERICENTER":163.5176,"MEAN_ANOMALY":196.6134,"EPHEMERIS_TYPE":0,"NORAD_CAT_ID":62634,"ELEMENT_SET_NO":999,"REV_AT_EPOCH":8331,"BSTAR":0.0001502501,"MEAN_MOTION_DOT":0.00005064,"MEAN_MOTION_DDOT":0},{"OBJECT_NAME":"FLOCK 4G-24","OBJECT_ID":"2025-009AE","EPOCH":"2026-07-14T19:18:33.331680","CLASSIFICATION_TYPE":"U","MEAN_MOTION":15.30362688,"ECCENTRICITY":0.00036613,"INCLINATION":97.4027,"RA_OF_ASC_NODE":277.988,"ARG_OF_PERICENTER":167.1171,"MEAN_ANOMALY":193.0164,"EPHEMERIS_TYPE":0,"NORAD_CAT_ID":62637,"ELEMENT_SET_NO":999,"REV_AT_EPOCH":8315,"BSTAR":0.00020413396,"MEAN_MOTION_DOT":0.00005918,"MEAN_MOTION_DDOT":0},{"OBJECT_NAME":"FLOCK 4G-3","OBJECT_ID":"2025-009AG","EPOCH":"2026-07-14T20:42:44.895168","CLASSIFICATION_TYPE":"U","MEAN_MOTION":15.29869115,"ECCENTRICITY":0.00031887,"INCLINATION":97.4027,"RA_OF_ASC_NODE":277.7547,"ARG_OF_PERICENTER":170.9283,"MEAN_ANOMALY":189.2015,"EPHEMERIS_TYPE":0,"NORAD_CAT_ID":62639,"ELEMENT_SET_NO":999,"REV_AT_EPOCH":8313,"BSTAR":0.00021981511,"MEAN_MOTION_DOT":0.00006282,"MEAN_MOTION_DDOT":0},{"OBJECT_NAME":"FLOCK 4G-27","OBJECT_ID":"2025-009AJ","EPOCH":"2026-07-14T18:02:32.142624","CLASSIFICATION_TYPE":"U","MEAN_MOTION":15.29803243,"ECCENTRICITY":0.00025058,"INCLINATION":97.3937,"RA_OF_ASC_NODE":276.9925,"ARG_OF_PERICENTER":171.9018,"MEAN_ANOMALY":188.2264,"EPHEMERIS_TYPE":0,"NORAD_CAT_ID":62641,"ELEMENT_SET_NO":999,"REV_AT_EPOCH":8311,"BSTAR":0.00020363693,"MEAN_MOTION_DOT":0.00005802,"MEAN_MOTION_DDOT":0},{"OBJECT_NAME":"FLOCK 4G-29","OBJECT_ID":"2025-009AK","EPOCH":"2026-07-14T19:15:38.700864","CLASSIFICATION_TYPE":"U","MEAN_MOTION":15.29857286,"ECCENTRICITY":0.00033705,"INCLINATION":97.4023,"RA_OF_ASC_NODE":277.6542,"ARG_OF_PERICENTER":168.0763,"MEAN_ANOMALY":192.0558,"EPHEMERIS_TYPE":0,"NORAD_CAT_ID":62642,"ELEMENT_SET_NO":999,"REV_AT_EPOCH":8312,"BSTAR":0.00018059336,"MEAN_MOTION_DOT":0.00005145,"MEAN_MOTION_DDOT":0},{"OBJECT_NAME":"FLOCK 4G-22","OBJECT_ID":"2025-009AN","EPOCH":"2026-07-14T16:33:48.504672","CLASSIFICATION_TYPE":"U","MEAN_MOTION":15.2976656,"ECCENTRICITY":0.0002914,"INCLINATION":97.401,"RA_OF_ASC_NODE":277.5766,"ARG_OF_PERICENTER":163.9793,"MEAN_ANOMALY":196.154,"EPHEMERIS_TYPE":0,"NORAD_CAT_ID":62645,"ELEMENT_SET_NO":999,"REV_AT_EPOCH":8312,"BSTAR":0.00021701513,"MEAN_MOTION_DOT":0.00006181,"MEAN_MOTION_DDOT":0},{"OBJECT_NAME":"FLOCK 4G-25","OBJECT_ID":"2025-009AP","EPOCH":"2026-07-14T19:04:28.102080","CLASSIFICATION_TYPE":"U","MEAN_MOTION":15.30005946,"ECCENTRICITY":0.00023735,"INCLINATION":97.4018,"RA_OF_ASC_NODE":277.7593,"ARG_OF_PERICENTER":164.0952,"MEAN_ANOMALY":196.0364,"EPHEMERIS_TYPE":0,"NORAD_CAT_ID":62646,"ELEMENT_SET_NO":999,"REV_AT_EPOCH":8314,"BSTAR":0.00021907298,"MEAN_MOTION_DOT":0.00006287,"MEAN_MOTION_DDOT":0}]}
